217P/LINEAR,e,12.8566,125.4547,246.9546,3.956030,0.1252606,0.68772425,346.9024,04/03.0/2017,2000,g 12.0,4.0
# From MPC 95214
218P/LINEAR,e,2.7256,176.0251,59.6703,3.096122,0.1809160,0.62185317,128.5657,04/03.0/2017,2000,g 16.0,4.0
# From MPC 10028
219P/LINEAR,e,11.5287,231.0239,107.4080,3.652886,0.1411724,0.35250394,5.8431,04/03.0/2017,2000,g 11.0,4.0
# From MPC 96868
220P/McNaught,e,8.1254,150.1112,180.6279,3.115191,0.1792574,0.50126767,118.2013,04/03.0/2017,2000,g 15.0,4.0
# From MPC 93589
221P/LINEAR,e,11.4267,229.7467,39.9410,3.460178,0.1531286,0.49211349,96.6657,04/03.0/2017,2000,g 14.5,4.0
# From MPC 92277
222P/LINEAR,e,5.1410,6.8747,346.3122,2.893551,0.2002430,0.71732957,201.4880,04/03.0/2017,2000,g 20.0,4.0
# From MPC102102
223P/Skiff,e,27.0164,346.7939,37.8539,4.155165,0.1163648,0.41492766,282.6766,04/03.0/2017,2000,g 12.0,4.0
# From MPC 75727
224P/LINEAR-NEAT,e,13.4262,40.4733,16.3548,3.412930,0.1563194,0.41582608,48.9800,04/03.0/2017,2000,g 15.5,4.0
# From MPC 75727
225P/LINEAR,e,21.3350,14.1823,3.9195,3.653890,0.1411142,0.63750231,32.3231,04/03.0/2017,2000,g 18.0,4.0
# From MPC101100
226P/Pigott-LINEAR-Kowalski,e,44.0048,54.0075,341.1209,3.769741,0.1346594,0.52878441,28.2609,04/03.0/2017,2000,g 12.5,4.0
# From MPC102956
227P/Catalina-LINEAR,e,6.5271,49.8005,90.2572,3.584092,0.1452564,0.50114717,348.3554,04/03.0/2017,2000,g 16.5,2.0
# From MPC 75728
228P/LINEAR,e,7.9116,31.0093,115.2833,4.176667,0.1154674,0.17789757,236.2019,04/03.0/2017,2000,g 14.5,2.0
# From MPC101100
229P/Gibbs,e,26.0677,157.9091,224.1408,3.936111,0.1262127,0.37609236,353.9789,04/03.0/2017,2000,g 13.0,4.0
# From MPC 95735
230P/LINEAR,e,14.6378,112.1503,309.2444,3.405189,0.1568528,0.56391352,78.6561,04/03.0/2017,2000,g 13.0,4.0
# From MPC102102
231P/LINEAR-NEAT,e,12.3300,133.0461,42.5606,4.021278,0.1222244,0.24807906,262.0560,04/03.0/2017,2000,g 14.5,2.0
# From MPC 75728
232P/Hill,e,14.6300,56.0350,53.6056,4.487054,0.1036960,0.33521458,283.9213,04/03.0/2017,2000,g 11.5,4.0
# From MPC 92986
233P/La Sagra,e,11.2835,74.9272,27.1581,3.030301,0.1868424,0.41113501,121.0247,04/03.0/2017,2000,g 15.0,4.0
# From MPC103849
234P/LINEAR,e,11.5262,179.7233,358.1104,3.811580,0.1324484,0.25284374,352.0852,04/03.0/2017,2000,g 12.0,4.0
# From MPC 75728
235P/LINEAR,e,8.9040,204.4605,333.7159,3.990570,0.1236379,0.31525562,316.9278,04/03.0/2017,2000,g 12.0,4.0
# From MPC 75728
236P/LINEAR,e,16.3334,245.6729,119.2714,3.732498,0.1366799,0.50770252,328.4032,04/03.0/2017,2000,g 14.0,4.0
# From MPC 99821
237P/LINEAR,e,14.0228,245.4310,25.0497,3.510019,0.1498787,0.43451689,25.9751,04/03.0/2017,2000,g 14.5,2.0
# From MPC102956
238P/Read,e,1.2646,51.6542,324.9222,3.164864,0.1750538,0.25239085,28.4368,04/03.0/2017,2000,g 14.5,4.0
# From MPC 75729
239P/LINEAR,e,11.3049,255.9285,220.3933,4.470397,0.1042761,0.63130888,292.5252,04/03.0/2017,2000,g 17.5,2.0
# From MPC 94676
240P/NEAT,e,23.5035,74.9333,352.1363,3.871633,0.1293787,0.44898520,307.1749,04/03.0/2017,2000,g 12.0,4.0
# From MPC 75729
241P/LINEAR,e,20.8762,305.7484,110.5384,4.958429,0.0892664,0.60852862,219.2447,04/03.0/2017,2000,g 13.5,4.0
# From MPC 81861
242P/Spahr,e,32.5184,180.6981,246.8738,5.482559,0.0767766,0.27640696,140.7593,04/03.0/2017,2000,g  8.0,4.0
# From MPC 82322
243P/NEAT,e,7.6416,87.6617,283.5681,3.829090,0.1315409,0.35892115,292.8952,04/03.0/2017,2000,g 12.5,4.0
# From MPC 88331
244P/Scotti,e,2.2577,354.0604,92.9186,4.896535,0.0909643,0.19727392,172.9242,04/03.0/2017,2000,g  9.0,4.0
# From MPC 75729
245P/WISE,e,21.2060,316.7245,316.6398,4.041843,0.1212928,0.45822370,322.2042,04/03.0/2017,2000,g 14.0,4.0
# From MPC 93589
246P/NEAT,e,15.9820,78.7452,175.9949,4.021879,0.1221970,0.28605950,186.3242,04/03.0/2017,2000,g 10.5,4.0
# From MPC 75729
247P/LINEAR,e,13.6615,54.0173,47.4865,3.969628,0.1246176,0.62518388,284.2237,04/03.0/2017,2000,g 16.5,2.0
# From MPC 75730
248P/Gibbs,e,6.3517,207.7771,210.1383,5.987625,0.0672701,0.63797469,151.3878,04/03.0/2017,2000,g 14.0,4.0
# From MPC 92986
249P/LINEAR,e,8.3953,239.1715,65.6004,2.762801,0.2146247,0.81948630,105.8768,04/03.0/2017,2000,g 15.5,4.0
# From MPC 75730
250P/Larson,e,13.2899,73.6808,45.0839,3.732304,0.1366906,0.40706524,318.2852,04/03.0/2017,2000,g 14.5,4.0
# From MPC 75730
251P/LINEAR,e,23.4201,219.4062,31.1492,3.507593,0.1500342,0.50606405,344.3215,04/03.0/2017,2000,g 16.5,2.0
# From MPC102956
252P/LINEAR,e,10.4220,190.9438,343.3302,3.046844,0.1853228,0.67298808,71.1160,04/03.0/2017,2000,g 17.5,4.0
# From MPC 81473
253P/PANSTARRS,e,4.9406,146.8835,230.7442,3.468202,0.1525975,0.41271798,298.9890,04/03.0/2017,2000,g 14.5,4.0
# From MPC 81473
254P/McNaught,e,32.4822,129.5773,219.1470,4.624441,0.0991095,0.32135319,233.4672,04/03.0/2017,2000,g 11.0,4.0
# From NK 2214
255P/Levy,e,18.2536,279.7083,179.7123,3.037994,0.1861332,0.66776927,354.4036,04/03.0/2017,2000,g 20.0,4.0
# From MPC 84027
256P/LINEAR,e,27.6312,81.3779,124.2286,4.632782,0.0988419,0.41963190,145.9526,04/03.0/2017,2000,g 14.0,2.0
# From MPC 88332
257P/Catalina,e,20.2397,207.7827,117.9221,3.756047,0.1353966,0.43096800,189.6865,04/03.0/2017,2000,g 11.5,4.0
# From MPC 79655
258P/PANSTARRS,e,6.7443,126.2840,26.0766,4.404805,0.1066140,0.21018778,234.9542,04/03.0/2017,2000,g 13.0,4.0
# From MPC 79655
259P/Garradd,e,15.8894,51.4845,257.4933,2.731392,0.2183374,0.33770065,333.1434,04/03.0/2017,2000,g 15.5,4.0
# From MPC102102
260P/McNaught,e,15.5679,351.3942,15.8888,3.647808,0.1414673,0.60591814,233.9330,04/03.0/2017,2000,g 13.5,4.0
# From MPC102102
261P/Larson,e,6.0346,292.4776,64.9561,3.510888,0.1498231,0.42191036,239.4275,04/03.0/2017,2000,g 14.0,4.0
# From MPC 82322
262P/McNaught-Russell,e,29.1087,217.9450,171.0832,6.890096,0.0544962,0.81435128,86.2678,04/03.0/2017,2000,g 13.5,4.0
# From MPC 82323
263P/Gibbs,e,11.5310,105.8325,34.5960,3.061115,0.1840283,0.58747048,326.9040,04/03.0/2017,2000,g 18.0,4.0
# From MPC102102
264P/Larsen,e,25.1497,220.9041,346.4978,3.897005,0.1281173,0.37372901,250.6416,04/03.0/2017,2000,g 13.0,4.0
# From MPC 79870
265P/LINEAR,e,14.6361,344.5172,32.6153,4.226153,0.1134452,0.64969771,199.7555,04/03.0/2017,2000,g 14.5,4.0
# From MPC 90771
266P/Christensen,e,3.4280,4.9971,98.0287,3.531566,0.1485091,0.33971832,194.7509,04/03.0/2017,2000,g 12.5,4.0
# From MPC 81862
267P/LONEOS,e,6.1133,228.7865,113.8482,3.220072,0.1705712,0.61443809,279.0169,04/03.0/2017,2000,g 19.5,4.0
# From MPC 92277
268P/Bernardi,e,16.0981,127.6181,0.2926,4.560031,0.1012167,0.46965760,71.5873,04/03.0/2017,2000,g 14.0,4.0
# From MPC 93589
269P/Jedicke,e,6.8985,242.4915,226.2953,7.191374,0.0511077,0.44188937,45.6038,04/03.0/2017,2000,g 10.0,4.0
# From MPC 88332
270P/Gehrels,e,2.9042,223.0209,210.3240,6.691332,0.0569423,0.46980664,78.7628,04/03.0/2017,2000,g  8.0,4.0
# From MPC 92277
271P/van Houten-Lemmon,e,6.8575,9.2905,36.7811,7.064630,0.0524892,0.39334498,71.3838,04/03.0/2017,2000,g 11.0,4.0
# From MPC 81862
272P/NEAT,e,18.0899,109.4980,28.0858,4.447913,0.1050678,0.45529631,157.1592,04/03.0/2017,2000,g 16.0,2.0
# From MPC 82723
273P/Pons-Gambart,e,136.4584,320.4131,20.1653,31.59804,0.0055490,0.97424690,0.0000,12/17.5974/2012,2000,g 11.5,4.0
# From MPC 88332
274P/Tombaugh-Tenagra,e,15.8237,81.3571,38.6311,4.365828,0.1080449,0.43924726,162.0567,04/03.0/2017,2000,g 13.0,4.0
# From MPC 81862
275P/Hermann,e,21.3447,348.7211,174.1273,5.764944,0.0712052,0.71422200,110.8950,04/03.0/2017,2000,g 15.0,4.0
# From MPC 84935
276P/Vorobjov,e,14.8664,211.7467,203.1337,5.299560,0.0807875,0.27648192,127.1177,04/03.0/2017,2000,g 11.5,4.0
# From MPC 82323
277P/LINEAR,e,16.7506,276.3474,152.1686,3.857746,0.1300779,0.50373315,181.9195,04/03.0/2017,2000,g 14.0,4.0
# From MPC 83523
278P/McNaught,e,6.6842,15.4940,237.8966,3.697430,0.1386290,0.43423037,185.5837,04/03.0/2017,2000,g 14.0,4.0
# From MPC 10028
279P/La Sagra,e,5.0462,346.2467,5.8567,3.580316,0.1454863,0.39697533,38.1920,04/03.0/2017,2000,g 14.0,4.0
# From MPC 89013
280P/Larsen,e,11.7701,131.4819,104.6048,4.527868,0.1022971,0.41839805,123.6092,04/03.0/2017,2000,g 12.5,4.0
# From MPC 83145
281P/MOSS,e,4.7211,87.1816,27.2940,4.863075,0.0919047,0.17206633,163.7410,04/03.0/2017,2000,g 11.0,4.0
# From unp
282P/,e,5.8105,9.3577,217.0758,4.249838,0.1124982,0.18929297,172.9961,04/03.0/2017,2000,g 13.5,2.0
# From MPC 84027
283P/Spacewatch,e,14.4678,161.2010,22.2290,4.136807,0.1171403,0.48612811,170.5496,04/03.0/2017,2000,g 16.0,2.0
# From MPC 93589
284P/McNaught,e,11.8616,144.2950,202.8404,3.672094,0.1400662,0.37595076,132.2433,04/03.0/2017,2000,g 13.0,4.0
# From MPC 85339
285P/LINEAR,e,25.0222,185.4714,178.5218,4.508321,0.1029632,0.61806427,142.2901,04/03.0/2017,2000,g 15.0,4.0
# From MPC 90771
286P/Christensen,e,17.0312,283.9402,24.7207,4.116880,0.1179918,0.42366348,139.6154,04/03.0/2017,2000,g 14.0,4.0
# From MPC 96868
287P/Christensen,e,16.3021,139.0426,188.9101,4.174678,0.1155499,0.26897110,95.6035,04/03.0/2017,2000,g 13.5,4.0
# From unp
288P/,e,3.2401,83.1867,281.0334,3.049074,0.1851195,0.20107165,26.9970,04/03.0/2017,2000,g 16.0,2.0
# From MPC102102
289P/Blanpain,e,5.8987,68.9324,9.8226,3.045972,0.1854023,0.68446964,175.9701,04/03.0/2017,2000,g 10.0,4.0
# From MPC 95214
290P/Jager,e,19.0612,303.4076,180.7941,6.131409,0.0649178,0.64772237,72.5682,04/03.0/2017,2000,g 10.5,4.0
# From MPC 89314
291P/NEAT,e,6.0852,239.1841,176.1509,4.505355,0.1030649,0.43904063,124.1890,04/03.0/2017,2000,g 13.0,4.0
# From MPC 93589
292P/Li,e,24.2436,91.0874,319.5748,6.122054,0.0650666,0.58833199,75.1478,04/03.0/2017,2000,g 12.5,4.0
# From MPC 92278
293P/Spacewatch,e,9.0592,78.4250,41.2088,3.638939,0.1419848,0.41872181,167.4246,04/03.0/2017,2000,g 14.5,4.0
# From MPC 89013
294P/LINEAR,e,18.2168,312.6587,235.4501,3.205860,0.1717067,0.59457353,193.3894,04/03.0/2017,2000,g 15.5,4.0
# From MPC 93589
295P/LINEAR,e,21.1262,7.6354,73.1019,5.319068,0.0803435,0.61632408,84.7761,04/03.0/2017,2000,g 12.0,4.0
# From MPC 92278
296P/Garradd,e,25.2204,263.6394,350.0022,3.500486,0.1504913,0.47798170,169.7912,04/03.0/2017,2000,g 14.0,4.0
# From MPC102956
